#aV2024  3 16  0  0  0.00000000     288 DD+AD WGS84 FIT  NGA
## 2305 518400.00000000   300.00000000 60385 0.0000000000000
+   32     1  2  3  4  5  6  7  8  9 10 11 12 13 14 15 16 17
+         18 19 20 21 22 23 24 25 26 27 28 29 30 31 32  0  0
+          0  0  0  0  0  0  0  0  0  0  0  0  0  0  0  0  0
+          0  0  0  0  0  0  0  0  0  0  0  0  0  0  0  0  0
+          0  0  0  0  0  0  0  0  0  0  0  0  0  0  0  0  0
++         2  2  2  2  2  2  2  2  2  2  2  2  2  2  2  2  2
++         2  2  2  2  2  2  2  2  2  2  2  2  2  2  2  0  0
++         0  0  0  0  0  0  0  0  0  0  0  0  0  0  0  0  0
++         0  0  0  0  0  0  0  0  0  0  0  0  0  0  0  0  0
++         0  0  0  0  0  0  0  0  0  0  0  0  0  0  0  0  0
%c cc cc ccc ccc cccc cccc cccc cccc ccccc ccccc ccccc ccccc
%c cc cc ccc ccc cccc cccc cccc cccc ccccc ccccc ccccc ccccc
%f  0.0000000  0.000000000  0.00000000000  0.000000000000000
%f  0.0000000  0.000000000  0.00000000000  0.000000000000000
%i    0    0    0    0      0      0      0      0         0
%i    0    0    0    0      0      0      0      0         0
/*      NGA, ST. LOUIS,MO.                                  
/*   EPHEMERIS COMPUTED FROM 2 DAYS OF DATA                 
/*   EPOCHA v9 SMOOTHER                                     
/*   G2296 IERS2010 SATIGS SATAPC                           
*  2024  3 16 22 35  0.00000000
P  1  23833.415127  11694.425716   2901.839548    174.342090                    
V  1   2713.430204   3421.242263 -31908.620314      0.020448                    
P  2  21597.867518  14275.818705  -6038.781173   -469.160830                    
V  2  -8485.069651  -1224.769061 -30497.829224      0.062099                    
P  3  11936.348444  15863.521984  17561.346573    256.184016                    
V  3   -910.329597  22502.161985 -19428.031348      0.226918                    
P  4  16309.435853   6744.195731  19905.933738    316.543660                    
V  4 -21524.396391  13124.408370  13070.113616      0.090931                    
P  5  -6422.962283 -24800.821682  -6993.159629   -165.644993                    
V  5   1868.157178  -8805.507309  30349.832967     -0.014139                    
P  6   9904.353962 -11047.371439  22103.550484    364.884414                    
V  6  24063.195302  13949.676271  -3713.668123     -0.164741                    
P  7  23608.013309   3636.679846 -11599.407330    -85.858825                    
V  7  12235.908710   9583.379587  26295.977987     -0.087392                    
P  8   8681.142858  12735.554660 -21733.717235     59.793409                    
V  8 -23086.027437  14720.095821   -175.506386      0.269787                    
P  9  23413.400449  -5459.563917  11271.888367    126.986323                    
V  9 -10855.691417   9807.408798  27052.281311      0.131923                    
P 10 -10797.925473  17283.293427 -16647.664676     -0.740483                    
V 10  -2012.746280 -21583.305741 -21152.175982     -0.020122                    
P 11  -2720.993721 -17666.993640  19684.255954   -608.749248                    
V 11  21775.043693  12151.612190  13886.838324     -0.116245                    
P 12 -10748.360635 -17383.917121  16708.728583   -487.810785                    
V 12   2922.007210 -21616.945304 -20203.181554     -0.035694                    
P 13   1713.875559 -16333.671794 -21027.950618    634.725715                    
V 13  24501.156017  -9476.724421   9669.856354      0.033205                    
P 14  13422.779875 -13437.109899 -18463.009734    352.282554                    
V 14   1606.073616  23625.431874 -16198.193413      0.097467                    
P 15 -10183.339335 -12359.694213 -21681.435751    138.382530                    
V 15  20474.057878 -16806.740449    167.760799      0.040066                    
P 16    109.600504  26198.956086  -2767.849722   -339.527470                    
V 16  -3331.747043   2929.326377  31827.162205      0.088851                    
P 17  23039.798398 -13319.285538   1724.777108    713.439782                    
V 17   2579.074798   1340.086996 -31756.621833     -0.013814                    
P 18 -22866.165306  -2745.337236 -13378.745785   -576.845707                    
V 18 -13758.073541  -9994.663915  25356.335597     -0.074637                    
P 19  18262.492101 -16075.938776  10011.543224    454.934317                    
V 19  12970.481688  -3163.954231 -28576.016384      0.053134                    
P 20   -604.932067 -25930.374467   6156.257271    383.682414                    
V 20   4239.285526   7029.464389  30176.550118     -0.013989                    
P 21  18541.658180  16266.860030 -10597.545577    131.084723                    
V 21 -13370.354425  -3935.465146 -27208.643386     -0.015134                    
P 22  10365.281340 -20834.205707 -12643.746280     14.917417                    
V 22    973.864856  16744.245099 -25642.485419     -0.059003                    
P 23 -14482.614760   4425.558740 -21778.349799    178.698563                    
V 23  -1685.685152 -27630.395202  -4672.731702      0.086694                    
P 24 -19875.930887 -15814.186029  -8865.514518   -447.224052                    
V 24  10893.996641   1573.972759 -28157.168099     -0.052843                    
P 25 -14980.073808  -6496.964862  20654.561814    491.477407                    
V 25   -167.970945 -27005.157867  -8215.167510      0.010026                    
P 26  -4890.724748  24009.766217   9625.355121    178.683154                    
V 26  -4846.148818 -12202.729259  27913.103041     -0.045549                    
P 27  -4212.724664  18110.544487 -19080.659588    -12.270174                    
V 27 -21094.168698  11086.912347  15833.295333     -0.027887                    
P 28 -12412.704755  10201.582855  21130.448161   -167.030177                    
V 28 -23610.768631 -12845.261461  -7666.186527     -0.139839                    
P 29 -23201.013941   1840.177762  12840.676711   -604.621760                    
V 29  13730.090192  -9049.385141  25895.717541      0.010007                    
P 30  17602.098092  -6117.288762 -18886.743872   -418.784969                    
V 30  20430.143806  13184.561521  14396.053932      0.053027                    
P 31  -2757.749889  15628.642480  21028.190327   -227.984291                    
V 31 -23992.660664 -13016.519665   6855.405707     -0.000257                    
P 32 -20693.618413  16019.352893   4042.705901   -616.013392                    
V 32  -5704.140500     90.934784 -31347.858754     -0.012159                    
EOF
